NORAD_CAT_ID,OBJECT_NAME,OBJECT_TYPE,EPOCH,MEAN_MOTION,ECCENTRICITY,INCLINATION,RA_OF_ASC_NODE,ARG_OF_PERICENTER,MEAN_ANOMALY,BSTAR,MEAN_MOTION_DOT,MEAN_MOTION_DDOT,TLE_LINE0,TLE_LINE1,TLE_LINE2,SEMIMAJOR_AXIS,PERIOD,APOGEE,PERIGEE,DECAYED
49159.0,STARLINK-3056,PAYLOAD,2022-10-03 20:53:48,14.98339168,0.000342,70.0006,213.2606,244.2948,115.7858,0.00013301,1.495e-05,0.0,0 STARLINK-3056,1 49159U 21082AF  22276.87069796  .00001495  00000-0  13301-3 0  9992,2 49159  70.0006 213.2606 0003420 244.2948 115.7858 14.98339168 59411,6950.165,96.106,574.406,569.653,0.0
49159.0,STARLINK-3056,PAYLOAD,2022-10-04 06:30:36,14.9833744,0.0003373,70.0016,212.251,246.8289,113.2515,0.00019637,2.251e-05,0.0,0 STARLINK-3056,1 49159U 21082AF  22277.27125728  .00002251  00000-0  19637-3 0  9994,2 49159  70.0016 212.2510 0003373 246.8289 113.2515 14.98337440 59478,6950.17,96.107,574.379,569.691,0.0
49159.0,STARLINK-3056,PAYLOAD,2022-10-05 04:56:30,14.98322603,0.000341,70.0018,209.8945,242.0443,118.0371,-5.3684e-05,-7.33e-06,0.0,0 STARLINK-3056,1 49159U 21082AF  22278.20591082 -.00000733  00000-0 -53684-4 0  9994,2 49159  70.0018 209.8945 0003410 242.0443 118.0371 14.98322603 59610,6950.215999999999,96.107,574.451,569.711,0.0
49159.0,STARLINK-3056,PAYLOAD,2022-10-05 12:57:10,14.98325956,0.0003556999999999,70.0016,209.0529,244.3742,115.705,3.3774e-05,3.1e-06,0.0,0 STARLINK-3056,1 49159U 21082AF  22278.53970703  .00000310  00000-0  33774-4 0  9998,2 49159  70.0016 209.0529 0003557 244.3742 115.7050 14.98325956 59664,6950.205,96.107,574.543,569.5980000000002,0.0
49159.0,STARLINK-3056,PAYLOAD,2022-10-05 20:57:51,14.98324576,0.0003438,70.002,208.2121,246.136,113.9439,-0.00011756,-1.495e-05,0.0,0 STARLINK-3056,1 49159U 21082AF  22278.87351276 -.00001495  00000-0 -11756-3 0  9995,2 49159  70.0020 208.2121 0003438 246.1360 113.9439 14.98324576 59716,6950.21,96.107,574.464,569.685,0.0
49159.0,STARLINK-3056,PAYLOAD,2022-10-06 03:22:23,14.98326525,0.0003167,70.0033,207.5404,230.1259,129.9621,-4.1342e-05,-5.86e-06,0.0,0 STARLINK-3056,1 49159U 21082AF  22279.14055065 -.00000586  00000-0 -41342-4 0  9998,2 49159  70.0033 207.5404 0003167 230.1259 129.9621 14.98326525 59755,6950.204000000002,96.107,574.27,569.868,0.0
49159.0,STARLINK-3056,PAYLOAD,2022-10-06 06:34:39,14.98336653,0.0003255,70.0019,207.2031,239.9522,120.1314,-2.7447e-05,-4.21e-06,0.0,0 STARLINK-3056,1 49159U 21082AF  22279.27406394 -.00000421  00000-0 -27447-4 0  9995,2 49159  70.0019 207.2031 0003255 239.9522 120.1314 14.98336653 59777,6950.172,96.107,574.3,569.775,0.0
49159.0,STARLINK-3056,PAYLOAD,2022-10-07 01:48:16,14.98325011,0.0003405,70.0028,205.1826,234.1409,125.9434,0.00018673,2.135e-05,0.0,0 STARLINK-3056,1 49159U 21082AF  22280.07518667  .00002135  00000-0  18673-3 0  9994,2 49159  70.0028 205.1826 0003405 234.1409 125.9434 14.98325011 59899,6950.208000000001,96.107,574.44,569.707,0.0
49159.0,STARLINK-3056,PAYLOAD,2022-10-07 13:01:12,14.98333178,0.0003714,70.001,204.0043,245.4568,114.6204,7.0623e-05,7.4999999999999985e-06,0.0,0 STARLINK-3056,1 49159U 21082AF  22280.54250482  .00000750  00000-0  70623-4 0  9999,2 49159  70.0010 204.0043 0003714 245.4568 114.6204 14.98333178 59964,6950.183000000001,96.107,574.629,569.467,0.0
49159.0,STARLINK-3056,PAYLOAD,2022-10-07 21:01:52,14.9833386,0.0003638999999999,70.0004,203.1626,243.4188,116.6598,0.00024262,2.803e-05,0.0,0 STARLINK-3056,1 49159U 21082AF  22280.87630138  .00002803  00000-0  24262-3 0  9993,2 49159  70.0004 203.1626 0003639 243.4188 116.6598 14.98333860 60010,6950.181,96.107,574.575,569.5169999999998,0.0
49159.0,STARLINK-3056,PAYLOAD,2022-10-08 03:26:25,14.98326661,0.0003385,70.0031,202.4919,227.0348,133.0528,0.00010631,1.176e-05,0.0,0 STARLINK-3056,1 49159U 21082AF  22281.14334885  .00001176  00000-0  10631-3 0  9991,2 49159  70.0031 202.4919 0003385 227.0348 133.0528 14.98326661 60052,6950.203,96.107,574.4209999999998,569.716,0.0
49159.0,STARLINK-3056,PAYLOAD,2022-10-08 05:02:33,14.98328336,0.0003171999999999,70.003,202.3234,232.3376,127.7495,0.00012213,1.364e-05,0.0,0 STARLINK-3056,1 49159U 21082AF  22281.21010814  .00001364  00000-0  12213-3 0  9999,2 49159  70.0030 202.3234 0003172 232.3376 127.7495 14.98328336 60069,6950.198,96.107,574.268,569.8580000000002,0.0
49159.0,STARLINK-3056,PAYLOAD,2022-10-08 19:27:45,14.98334694,0.000321,70.0029,200.8077,236.4263,123.659,6.0593e-05,6.3e-06,0.0,0 STARLINK-3056,1 49159U 21082AF  22281.81094479  .00000630  00000-0  60593-4 0  9994,2 49159  70.0029 200.8077 0003210 236.4263 123.6590 14.98334694 60153,6950.178000000001,96.107,574.274,569.812,0.0
49159.0,STARLINK-3056,PAYLOAD,2022-10-09 03:28:26,14.98322437,0.0003013,70.0032,199.9653,234.1376,125.9504,-6.5208e-05,-8.71e-06,0.0,0 STARLINK-3056,1 49159U 21082AF  22282.14475497 -.00000871  00000-0 -65208-4 0  9991,2 49159  70.0032 199.9653 0003013 234.1376 125.9504 14.98322437 60204,6950.215999999999,96.107,574.175,569.987,0.0
49159.0,STARLINK-3056,PAYLOAD,2022-10-09 11:29:07,14.98314565,0.0003581,70.0015,199.1236,233.5193,126.5636,0.00035444,4.137e-05,0.0,0 STARLINK-3056,1 49159U 21082AF  22282.47855463  .00004137  00000-0  35444-3 0  9997,2 49159  70.0015 199.1236 0003581 233.5193 126.5636 14.98314565 60255,6950.241,96.108,574.595,569.617,0.0
49159.0,STARLINK-3056,PAYLOAD,2022-10-09 19:29:46,14.98335304,0.0003661,70.0021,198.2826,244.8026,115.2753,-2.4208e-07,-9.6e-07,0.0,0 STARLINK-3056,1 49159U 21082AF  22282.81234507 -.00000096  00000-0 -24208-6 0  9996,2 49159  70.0021 198.2826 0003661 244.8026 115.2753 14.98335304 60301,6950.176,96.107,574.586,569.497,0.0
49159.0,STARLINK-3056,PAYLOAD,2022-10-09 21:05:54,14.98342212,0.0003373999999999,70.0021,198.1137,245.3793,114.7015,6.9815e-05,7.400000000000001e-06,0.0,0 STARLINK-3056,1 49159U 21082AF  22282.87909985  .00000740  00000-0  69815-4 0  9996,2 49159  70.0021 198.1137 0003374 245.3793 114.7015 14.98342212 60315,6950.155,96.106,574.365,569.675,0.0
49159.0,STARLINK-3056,PAYLOAD,2022-10-10 11:31:07,14.98323486,0.0003089,70.0042,196.599,245.0292,115.0546,0.00022963,2.648e-05,0.0,0 STARLINK-3056,1 49159U 21082AF  22283.47995038  .00002648  00000-0  22963-3 0  9998,2 49159  70.0042 196.5990 0003089 245.0292 115.0546 14.98323486 60406,6950.2130000000025,96.107,574.225,569.931,0.0
49159.0,STARLINK-3056,PAYLOAD,2022-10-10 17:55:39,14.98329094,0.0003551,70.0037,195.9264,245.6041,114.4748,7.2861e-05,7.76e-06,0.0,0 STARLINK-3056,1 49159U 21082AF  22283.74698693  .00000776  00000-0  72861-4 0  9998,2 49159  70.0037 195.9264 0003551 245.6041 114.4748 14.98329094 60441,6950.196,96.107,574.529,569.5930000000002,0.0
49159.0,STARLINK-3056,PAYLOAD,2022-10-11 05:08:36,14.983248,0.000327,70.0037,194.748,243.9721,116.1102,-6.109e-05,-8.22e-06,0.0,0 STARLINK-3056,1 49159U 21082AF  22284.21430848 -.00000822  00000-0 -61090-4 0  9993,2 49159  70.0037 194.7480 0003270 243.9721 116.1102 14.98324800 60513,6950.209,96.107,574.347,569.8009999999998,0.0
49159.0,STARLINK-3056,PAYLOAD,2022-10-11 17:57:41,14.98317521,0.0003441,70.0053,193.4004,241.4903,118.591,-0.00018613,-2.312e-05,0.0,0 STARLINK-3056,1 49159U 21082AF  22284.74839503 -.00002312  00000-0 -18613-3 0  9990,2 49159  70.0053 193.4004 0003441 241.4903 118.5910 14.98317521 60597,6950.231,96.108,574.488,569.705,0.0
49159.0,STARLINK-3056,PAYLOAD,2022-10-12 03:34:29,14.98325652,0.0003115,70.0038,192.3918,245.0552,115.0284,-5.000100000000001e-05,-6.89e-06,0.0,0 STARLINK-3056,1 49159U 21082AF  22285.14895661 -.00000689  00000-0 -50001-4 0  9995,2 49159  70.0038 192.3918 0003115 245.0552 115.0284 14.98325652 60657,6950.206,96.107,574.236,569.906,0.0
49159.0,STARLINK-3056,PAYLOAD,2022-10-12 11:35:10,14.98329253,0.0003333,70.005,191.55,248.7223,111.358,0.00019435,2.227e-05,0.0,0 STARLINK-3056,1 49159U 21082AF  22285.48275603  .00002227  00000-0  19435-3 0  9993,2 49159  70.0050 191.5500 0003333 248.7223 111.3580 14.98329253 60701,6950.195,96.107,574.377,569.744,0.0
49159.0,STARLINK-3056,PAYLOAD,2022-10-12 17:59:42,14.98331105,0.0003716,70.003,190.8777,245.3271,114.7501,0.00025737,2.979e-05,0.0,0 STARLINK-3056,1 49159U 21082AF  22285.74979517  .00002979  00000-0  25737-3 0  9993,2 49159  70.0030 190.8777 0003716 245.3271 114.7501 14.98331105 60741,6950.189,96.107,574.637,569.472,0.0
49159.0,STARLINK-3056,PAYLOAD,2022-10-13 03:36:31,14.98327707,0.0003366,70.0032,189.8676,245.1362,114.9447,0.00015184,1.719e-05,0.0,0 STARLINK-3056,1 49159U 21082AF  22286.15035948  .00001719  00000-0  15184-3 0  9996,2 49159  70.0032 189.8676 0003366 245.1362 114.9447 14.98327707 60800,6950.2,96.107,574.404,569.726,0.0
49159.0,STARLINK-3056,PAYLOAD,2022-10-13 11:37:11,14.98333378,0.0003467999999999,70.0049,189.0254,245.5291,114.5507,0.00038645,4.522e-05,0.0,0 STARLINK-3056,1 49159U 21082AF  22286.48415674  .00004522  00000-0  38645-3 0  9992,2 49159  70.0049 189.0254 0003468 245.5291 114.5507 14.98333378 60859,6950.182,96.107,574.4580000000002,569.637,0.0
49159.0,STARLINK-3056,PAYLOAD,2022-10-14 03:38:29,14.98372018,0.0003078,70.0026,187.3421,247.1156,112.9678,0.00091981,0.00010911,0.0,0 STARLINK-3056,1 49159U 21082AF  22287.15173498  .00010911  00000-0  91981-3 0  9993,2 49159  70.0026 187.3421 0003078 247.1156 112.9678 14.98372018 60952,6950.063,96.104,574.067,569.789,0.0
49159.0,STARLINK-3056,PAYLOAD,2022-10-14 11:39:10,14.98351365,0.0003517,70.002,186.502,244.5439,115.5356,0.00033041,3.854e-05,0.0,0 STARLINK-3056,1 49159U 21082AF  22287.48553865  .00003854  00000-0  33041-3 0  9990,2 49159  70.0020 186.5020 0003517 244.5439 115.5356 14.98351365 61006,6950.127,96.106,574.436,569.547,0.0
49159.0,STARLINK-3056,PAYLOAD,2022-10-14 21:15:59,14.98332275,0.0003646,70.0024,185.4924,244.584,115.4942,-6.2052e-05,-8.33e-06,0.0,0 STARLINK-3056,1 49159U 21082AF  22287.88610537 -.00000833  00000-0 -62052-4 0  9995,2 49159  70.0024 185.4924 0003646 244.5840 115.4942 14.98332275 61065,6950.186,96.107,574.585,569.5169999999998,0.0
